{"fetched_at":"2026-07-13T07:48:38.500Z","source":"https://celestrak.org/NORAD/elements/gp.php?NAME=RADARSAT&FORMAT=JSON","constellation":"radarsat-2","records":[{"OBJECT_NAME":"RADARSAT-2","OBJECT_ID":"2007-061A","EPOCH":"2026-07-12T20:34:10.388352","CLASSIFICATION_TYPE":"U","MEAN_MOTION":14.29982486,"ECCENTRICITY":0.0001338,"INCLINATION":98.5783,"RA_OF_ASC_NODE":200.4226,"ARG_OF_PERICENTER":84.131,"MEAN_ANOMALY":276.0025,"EPHEMERIS_TYPE":0,"NORAD_CAT_ID":32382,"ELEMENT_SET_NO":999,"REV_AT_EPOCH":96962,"BSTAR":-0.000012835,"MEAN_MOTION_DOT":-7.7e-7,"MEAN_MOTION_DDOT":0}]}
